GLOBALSTAR M045 [-]     
1 25676U 99019A   24075.49740044 -.00000132  00000+0 -33928-3 0  9999
2 25676  51.9963 172.5993 0000952  91.6357 350.8833 12.27032285137085
GLOBALSTAR M019 [-]     
1 25677U 99019B   24075.96232994  .00000024  00000+0  11909-2 0  9994
2 25677  51.9856 269.4050 0001855 101.6059  46.1237 12.13851793129498
GLOBALSTAR M044 [-]     
1 25678U 99019C   24075.40866409 -.00000065  00000+0  26482-3 0  9997
2 25678  51.9958 164.9081 0006118 229.8939 208.3341 11.90229685116691
GLOBALSTAR M042 [-]     
1 25679U 99019D   24075.72592809 -.00000087  00000+0  49986-4 0  9992
2 25679  51.9993 265.1748 0003894  78.1879  48.6526 12.22057611129206
GLOBALSTAR M025 [-]     
1 25770U 99031A   24075.46383458 -.00000060  00000+0  22112-3 0  9999
2 25770  51.9801 141.9310 0001811 113.3107 345.4790 11.22549593430193
GLOBALSTAR M049 [-]     
1 25771U 99031B   24075.50061080 -.00000093  00000+0 -97648-3 0  9992
2 25771  51.9856 153.5574 0002429 325.9472  34.1168 11.12102238 66395
GLOBALSTAR M047 [-]     
1 25772U 99031C   24075.74275372 -.00000046  00000+0  65892-3 0  9993
2 25772  51.9819 193.7753 0016667 192.9133 167.1247 11.31919176419198
GLOBALSTAR M052 [-]     
1 25773U 99031D   24075.80374316 -.00000041  00000+0  84210-3 0  9999
2 25773  51.9844 267.9932 0003413 123.0828  13.6035 11.15049687427373
